STARLINK-1771
1 16384C 20062BN  21326.13714944  .00010738  00000-0  71928-3 0  3265
2 16384  53.0520 218.1136 0002178  66.6914  79.7356 15.06394860    14
